{"type": "FeatureCollection", "name": "evacuation_routes", "crs": {"type": "name", "properties": {"name": "urn:ogc:def:crs:OGC:1.3:CRS84"}}, "features": [{"type": "Feature", "properties": {}, "geometry": {"coordinates": [[105.33478778411506, 36.18103099260732], [105.33491660730711, 36.1808923348824], [105.33516342130675, 36.180834419156085], [105.33540465610064, 36.18084805034574], [105.33508055993502, 36.180715428883204], [105.33500362248999, 36.18060596038966], [105.33484380634842, 36.180372733064104], [105.33483122920107, 36.18018201200414], [105.33482486050518, 36.180067577611226], [105.33474177933628, 36.179896130529315], [105.33465305756326, 36.17978192690782], [105.3345349873116, 36.17968210928247], [105.33445807259099, 36.17957740873559], [105.33433988132572, 36.17944897984645], [105.3342513429488, 36.179377693061824], [105.33408662249829, 36.179373385006826], [105.3338401757698, 36.17951713775951], [105.33363494412582, 36.17967031412006], [105.33335918773278, 36.17983799332708], [105.33310677376687, 36.1799626865458], [105.33293618793999, 36.17996316106477], [105.33277126396035, 36.179911162429185], [105.33258291096989, 36.17988307277468], [105.33253029241342, 36.17995952078402], [105.33261957386033, 36.18012590822523]], "type": "LineString"}}, {"type": "Feature", "properties": {}, "geometry": {"coordinates": [[105.33234890600141, 36.18034072180229], [105.33241347364037, 36.180155367644566], [105.33245436668568, 36.18008849066833], [105.33255127506983, 36.18009887213661]], "type": "LineString"}}, {"type": "Feature", "properties": {}, "geometry": {"coordinates": [[105.34468759607697, 36.182302243984864], [105.34489338659516, 36.18201170420125], [105.3455701685656, 36.18181136766908], [105.34654886408451, 36.18177801783761], [105.34683256412723, 36.18208240371434], [105.34683417861628, 36.1824486479627], [105.347174690515, 36.18282917023057], [105.3474053614785, 36.18391198724438], [105.34752275538689, 36.18491883067449], [105.34763812935248, 36.18546786879536], [105.34760216599486, 36.18584948229883], [105.34758624068643, 36.18650572408768], [105.34751384036622, 36.187162129762875], [105.3476852207319, 36.18760418252037], [105.347892566081, 36.18766462155081]], "type": "LineString"}}, {"type": "Feature", "properties": {}, "geometry": {"coordinates": [[105.31639080786944, 36.1694386542442], [105.31659367896386, 36.169472079251356], [105.3167987824937, 36.16928555039095], [105.31690982010865, 36.169108807948795], [105.31702116451856, 36.16900836668648], [105.31718542242888, 36.16890301627695], [105.31732663475765, 36.168916948751715], [105.31742723469242, 36.16906928628742], [105.31758682285624, 36.16926438721245], [105.31762249652867, 36.16935967020087], [105.31755243822471, 36.169488615809115], [105.31749275154137, 36.169717677751215]], "type": "LineString"}}]}