{"type": "FeatureCollection", "name": "evacuation_sites", "crs": {"type": "name", "properties": {"name": "urn:ogc:def:crs:OGC:1.3:CRS84"}}, "features": [{"type": "Feature", "properties": {}, "geometry": {"coordinates": [[[105.33247769009995, 36.18022497472058], [105.33272526337703, 36.18034732375209], [105.33278814083332, 36.180192637181314], [105.33255127506983, 36.18009887213661], [105.33247769009995, 36.18022497472058]]], "type": "Polygon"}}, {"type": "Feature", "properties": {}, "geometry": {"coordinates": [[[105.34788100577727, 36.1877997728949], [105.34806354256747, 36.1878373931829], [105.34809175392998, 36.18756548603512], [105.34791501621015, 36.18750877348537], [105.34788100577727, 36.1877997728949]]], "type": "Polygon"}}, {"type": "Feature", "properties": {}, "geometry": {"coordinates": [[[105.31618258783814, 36.16962576972951], [105.31640593143192, 36.16958702868144], [105.31637531643568, 36.16928667008321], [105.31612256629649, 36.16932548871794], [105.31618258783814, 36.16962576972951]]], "type": "Polygon"}}]}