{"type": "FeatureCollection", "name": "hazard_points", "crs": {"type": "name", "properties": {"name": "urn:ogc:def:crs:OGC:1.3:CRS84"}}, "features": [{"type": "Feature", "properties": {"news": "东塬村上岔社  切坡建房隐患点\r\n威胁人口：17户76人（常住7户12人）\r\n重点关注人口：冉成俊（独居老人）\r\n安置点东塬村劝导站\r\n转移责任人：安连宝  18309369704"}, "geometry": {"coordinates": [[[105.33176730744962, 36.18036699150567], [105.33236877095436, 36.18071344929682], [105.33305128159385, 36.180749704532154], [105.33300317494498, 36.18050185711664], [105.3326680237825, 36.1805361708773], [105.33212544360921, 36.18020385583966], [105.33188866417906, 36.17985161741524], [105.33176730744962, 36.18036699150567]]], "type": "Polygon"}}, {"type": "Feature", "properties": {"news": null}, "geometry": {"coordinates": [[[105.33448993308625, 36.18153732598661], [105.33480167757726, 36.18153168617904], [105.33478778411506, 36.18103099260732], [105.33454508625927, 36.18067400603814], [105.33428630626527, 36.180684267322846], [105.33448993308625, 36.18153732598661]]], "type": "Polygon"}}, {"type": "Feature", "properties": {"news": "东塬村中岔社  切坡建房隐患点\r\n威胁人口：11户46人（常住6户10人）\r\n重点关注人口：邓秀珍（独居老人）\r\n安置点：东塬村旧村址\r\n转移责任人：杨喜荣  15293043243"}, "geometry": {"coordinates": [[[105.34410886456975, 36.18340265564997], [105.3453905738612, 36.18378047384245], [105.34615860298688, 36.182923674813686], [105.3458910428052, 36.18200882586199], [105.34468759607697, 36.182302243984864], [105.34412108076422, 36.18189184368028], [105.34410886456975, 36.18340265564997]]], "type": "Polygon"}}, {"type": "Feature", "properties": {"news": "东塬村下岔社  切坡建房隐患点\r\n威胁人口：20户76人（常住4户8人）\r\n重点关注人口：史连勤（脑梗）\r\n吴彩兰（独居老人）\r\n安置点：权正刚家\r\n转移责任人：史文江  18309369704"}, "geometry": {"coordinates": [[[105.31713760009382, 36.1701716652279], [105.31809216304372, 36.170603101108846], [105.31850041893752, 36.16974838626467], [105.3175413485666, 36.16965555604302], [105.31713760009382, 36.1701716652279]]], "type": "Polygon"}}]}